HAWK-5A                 
1 52757U 22057AB  26170.43022038  .00016754  00000+0  28529-3 0  9991
2 52757  97.6614 329.4222 0005442  72.1777 288.0067 15.51460047226690
HAWK-6B                 
1 55324U 23011A   26170.80611766  .00003937  00000+0  17227-3 0  9990
2 55324  40.5000 336.7963 0001932  18.8888 341.1993 15.22953795188244
HAWK-6C                 
1 55326U 23011C   26170.80546050  .00003648  00000+0  16028-3 0  9992
2 55326  40.4989 333.6388 0002780   8.0387 352.0467 15.22949639188255
HAWK-6A                 
1 55327U 23011D   26170.80551193  .00003911  00000+0  17119-3 0  9992
2 55327  40.5001 335.2634 0002483   2.2532 357.8288 15.22951906188256
HAWK-7A                 
1 56191U 23054P   26170.73094106  .00004379  00000+0  16601-3 0  9991
2 56191  97.2695  58.0032 0004148  51.5002 308.6609 15.27382172177410
HAWK-7B                 
1 56193U 23054R   26170.73086044  .00004475  00000+0  16960-3 0  9990
2 56193  97.2720  56.2680 0003610  64.0470 296.1141 15.27380605177412
HAWK-7C                 
1 56200U 23054Y   26170.40317749  .00004631  00000+0  17542-3 0  9993
2 56200  97.2697  56.7167 0003555  56.0832 304.0745 15.27379568177369
